{"type": "FeatureCollection", "features": [{"type": "Feature", "properties": {"norad_id": 36828, "name": "BEIDOU-2 IGSO-1 (C06)", "group": "beidou", "lat": 32.937291437244724, "lon": -43.15463320918131, "alt_km": 35735.30955067193, "timestamp": "2025-12-10T07:43:55.044412+00:00", "meta": {"OBJECT_NAME": "BEIDOU-2 IGSO-1 (C06)", "OBJECT_ID": "2010-036A", "EPOCH": "2025-12-09T10:39:31.929984", "MEAN_MOTION": 1.00277193, "ECCENTRICITY": 0.0051253, "INCLINATION": 54.2848, "RA_OF_ASC_NODE": 164.6772, "ARG_OF_PERICENTER": 215.9067, "MEAN_ANOMALY": 325.5876, "EPHEMERIS_TYPE": 0, "CLASSIFICATION_TYPE": "U", "NORAD_CAT_ID": 36828, "ELEMENT_SET_NO": 999, "REV_AT_EPOCH": 5619, "BSTAR": 0, "MEAN_MOTION_DOT": -6.8e-07, "MEAN_MOTION_DDOT": 0}, "tle": {"line1": "1 36828U 10036A   25343.44411956 -.00000068  00000+0  00000+0 0  9991", "line2": "2 36828  54.2848 164.6772 0051253 215.9067 325.5876  1.00277193 56196"}}, "geometry": {"type": "Point", "coordinates": [-43.15463320918131, 32.937291437244724]}}, {"type": "Feature", "properties": {"norad_id": 37210, "name": "BEIDOU-2 G4 (C04)", "group": "beidou", "lat": -3.0598417462649965, "lon": -4.499111078526798, "alt_km": 35791.13215528609, "timestamp": "2025-12-10T07:43:55.044435+00:00", "meta": {"OBJECT_NAME": "BEIDOU-2 G4 (C04)", "OBJECT_ID": "2010-057A", "EPOCH": "2025-12-09T19:28:14.509920", "MEAN_MOTION": 1.00271312, "ECCENTRICITY": 0.0010984, "INCLINATION": 3.1773, "RA_OF_ASC_NODE": 69.9401, "ARG_OF_PERICENTER": 189.9059, "MEAN_ANOMALY": 271.0842, "EPHEMERIS_TYPE": 0, "CLASSIFICATION_TYPE": "U", "NORAD_CAT_ID": 37210, "ELEMENT_SET_NO": 999, "REV_AT_EPOCH": 5539, "BSTAR": 0, "MEAN_MOTION_DOT": -1.09e-06, "MEAN_MOTION_DDOT": 0}, "tle": {"line1": "1 37210U 10057A   25343.81127905 -.00000109  00000+0  00000+0 0  9995", "line2": "2 37210   3.1773  69.9401 0010984 189.9059 271.0842  1.00271312 55391"}}, "geometry": {"type": "Point", "coordinates": [-4.499111078526798, -3.0598417462649965]}}, {"type": "Feature", "properties": {"norad_id": 37256, "name": "BEIDOU-2 IGSO-2 (C07)", "group": "beidou", "lat": 20.863493334642214, "lon": -65.71742786773493, "alt_km": 35985.498029317394, "timestamp": "2025-12-10T07:43:55.044450+00:00", "meta": {"OBJECT_NAME": "BEIDOU-2 IGSO-2 (C07)", "OBJECT_ID": "2010-068A", "EPOCH": "2025-12-03T17:22:36.027840", "MEAN_MOTION": 1.0028872, "ECCENTRICITY": 0.00492449, "INCLINATION": 47.9042, "RA_OF_ASC_NODE": 274.2614, "ARG_OF_PERICENTER": 216.1411, "MEAN_ANOMALY": 310.24, "EPHEMERIS_TYPE": 0, "CLASSIFICATION_TYPE": "U", "NORAD_CAT_ID": 37256, "ELEMENT_SET_NO": 999, "REV_AT_EPOCH": 5483, "BSTAR": 0, "MEAN_MOTION_DOT": -2.25e-06, "MEAN_MOTION_DDOT": 0}, "tle": {"line1": "1 37256U 10068A   25337.72402810 -.00000225  00000+0  00000+0 0  9990", "line2": "2 37256  47.9042 274.2614 0049244 216.1411 310.2400  1.00288720 54834"}}, "geometry": {"type": "Point", "coordinates": [-65.71742786773493, 20.863493334642214]}}, {"type": "Feature", "properties": {"norad_id": 37384, "name": "BEIDOU-2 IGSO-3 (C08)", "group": "beidou", "lat": -60.92519816604711, "lon": -66.21859965586484, "alt_km": 35751.72391821272, "timestamp": "2025-12-10T07:43:55.044464+00:00", "meta": {"OBJECT_NAME": "BEIDOU-2 IGSO-3 (C08)", "OBJECT_ID": "2011-013A", "EPOCH": "2025-12-07T14:00:04.361184", "MEAN_MOTION": 1.00271435, "ECCENTRICITY": 0.0035334, "INCLINATION": 62.1366, "RA_OF_ASC_NODE": 41.9657, "ARG_OF_PERICENTER": 187.0632, "MEAN_ANOMALY": 165.2408, "EPHEMERIS_TYPE": 0, "CLASSIFICATION_TYPE": "U", "NORAD_CAT_ID": 37384, "ELEMENT_SET_NO": 999, "REV_AT_EPOCH": 5373, "BSTAR": 0, "MEAN_MOTION_DOT": -1.91e-06, "MEAN_MOTION_DDOT": 0}, "tle": {"line1": "1 37384U 11013A   25341.58338381 -.00000191  00000+0  00000+0 0  9995", "line2": "2 37384  62.1366  41.9657 0035334 187.0632 165.2408  1.00271435 53735"}}, "geometry": {"type": "Point", "coordinates": [-66.21859965586484, -60.92519816604711]}}, {"type": "Feature", "properties": {"norad_id": 37763, "name": "BEIDOU-2 IGSO-4 (C09)", "group": "beidou", "lat": 44.49019120204942, "lon": -57.056425500161914, "alt_km": 35981.494319112804, "timestamp": "2025-12-10T07:43:55.044477+00:00", "meta": {"OBJECT_NAME": "BEIDOU-2 IGSO-4 (C09)", "OBJECT_ID": "2011-038A", "EPOCH": "2025-12-01T12:32:09.960864", "MEAN_MOTION": 1.00284084, "ECCENTRICITY": 0.01488084, "INCLINATION": 54.5806, "RA_OF_ASC_NODE": 167.4476, "ARG_OF_PERICENTER": 230.2017, "MEAN_ANOMALY": 315.0405, "EPHEMERIS_TYPE": 0, "CLASSIFICATION_TYPE": "U", "NORAD_CAT_ID": 37763, "ELEMENT_SET_NO": 999, "REV_AT_EPOCH": 5266, "BSTAR": 0, "MEAN_MOTION_DOT": 1.01e-06, "MEAN_MOTION_DDOT": 0}, "tle": {"line1": "1 37763U 11038A   25335.52233751  .00000101  00000+0  00000+0 0  9995", "line2": "2 37763  54.5806 167.4476 0148808 230.2017 315.0405  1.00284084 52669"}}, "geometry": {"type": "Point", "coordinates": [-57.056425500161914, 44.49019120204942]}}, {"type": "Feature", "properties": {"norad_id": 37948, "name": "BEIDOU-2 IGSO-5 (C10)", "group": "beidou", "lat": 10.95312104438108, "lon": -76.11950666880266, "alt_km": 36191.02476271002, "timestamp": "2025-12-10T07:43:55.044490+00:00", "meta": {"OBJECT_NAME": "BEIDOU-2 IGSO-5 (C10)", "OBJECT_ID": "2011-073A", "EPOCH": "2025-12-09T19:08:31.399296", "MEAN_MOTION": 1.00291503, "ECCENTRICITY": 0.0110301, "INCLINATION": 48.0257, "RA_OF_ASC_NODE": 273.8934, "ARG_OF_PERICENTER": 222.226, "MEAN_ANOMALY": 322.5967, "EPHEMERIS_TYPE": 0, "CLASSIFICATION_TYPE": "U", "NORAD_CAT_ID": 37948, "ELEMENT_SET_NO": 999, "REV_AT_EPOCH": 5123, "BSTAR": 0, "MEAN_MOTION_DOT": -2.09e-06, "MEAN_MOTION_DDOT": 0}, "tle": {"line1": "1 37948U 11073A   25343.79758564 -.00000209  00000+0  00000+0 0  9991", "line2": "2 37948  48.0257 273.8934 0110301 222.2260 322.5967  1.00291503 51233"}}, "geometry": {"type": "Point", "coordinates": [-76.11950666880266, 10.95312104438108]}}, {"type": "Feature", "properties": {"norad_id": 38091, "name": "BEIDOU-2 G5 (C05)", "group": "beidou", "lat": -0.19368766360213036, "lon": -106.06646580091869, "alt_km": 35746.525248360565, "timestamp": "2025-12-10T07:43:55.044502+00:00", "meta": {"OBJECT_NAME": "BEIDOU-2 G5 (C05)", "OBJECT_ID": "2012-008A", "EPOCH": "2025-12-09T18:59:24.770688", "MEAN_MOTION": 1.00274381, "ECCENTRICITY": 0.001255, "INCLINATION": 3.1019, "RA_OF_ASC_NODE": 70.7125, "ARG_OF_PERICENTER": 226.3781, "MEAN_ANOMALY": 125.2902, "EPHEMERIS_TYPE": 0, "CLASSIFICATION_TYPE": "U", "NORAD_CAT_ID": 38091, "ELEMENT_SET_NO": 999, "REV_AT_EPOCH": 5046, "BSTAR": 0, "MEAN_MOTION_DOT": 5.8e-07, "MEAN_MOTION_DDOT": 0}, "tle": {"line1": "1 38091U 12008A   25343.79125892  .00000058  00000+0  00000+0 0  9993", "line2": "2 38091   3.1019  70.7125 0012550 226.3781 125.2902  1.00274381 50463"}}, "geometry": {"type": "Point", "coordinates": [-106.06646580091869, -0.19368766360213036]}}, {"type": "Feature", "properties": {"norad_id": 38250, "name": "BEIDOU-2 M3 (C11)", "group": "beidou", "lat": 55.53909508735947, "lon": 50.89741950247628, "alt_km": 21590.129459390108, "timestamp": "2025-12-10T07:43:55.044514+00:00", "meta": {"OBJECT_NAME": "BEIDOU-2 M3 (C11)", "OBJECT_ID": "2012-018A", "EPOCH": "2025-12-09T02:31:53.071968", "MEAN_MOTION": 1.86229533, "ECCENTRICITY": 0.00244707, "INCLINATION": 55.9232, "RA_OF_ASC_NODE": 311.2798, "ARG_OF_PERICENTER": 273.7022, "MEAN_ANOMALY": 86.0063, "EPHEMERIS_TYPE": 0, "CLASSIFICATION_TYPE": "U", "NORAD_CAT_ID": 38250, "ELEMENT_SET_NO": 999, "REV_AT_EPOCH": 9240, "BSTAR": 0, "MEAN_MOTION_DOT": -7.5e-07, "MEAN_MOTION_DDOT": 0}, "tle": {"line1": "1 38250U 12018A   25343.10547537 -.00000075  00000+0  00000+0 0  9990", "line2": "2 38250  55.9232 311.2798 0024470 273.7022  86.0063  1.86229533 92404"}}, "geometry": {"type": "Point", "coordinates": [50.89741950247628, 55.53909508735947]}}, {"type": "Feature", "properties": {"norad_id": 38251, "name": "BEIDOU-2 M4 (C12)", "group": "beidou", "lat": 31.362750053994798, "lon": 106.00266593610397, "alt_km": 21555.732034421566, "timestamp": "2025-12-10T07:43:55.044525+00:00", "meta": {"OBJECT_NAME": "BEIDOU-2 M4 (C12)", "OBJECT_ID": "2012-018B", "EPOCH": "2025-12-09T00:54:02.015712", "MEAN_MOTION": 1.86229239, "ECCENTRICITY": 0.001562, "INCLINATION": 55.8247, "RA_OF_ASC_NODE": 310.5113, "ARG_OF_PERICENTER": 276.8164, "MEAN_ANOMALY": 82.9941, "EPHEMERIS_TYPE": 0, "CLASSIFICATION_TYPE": "U", "NORAD_CAT_ID": 38251, "ELEMENT_SET_NO": 999, "REV_AT_EPOCH": 9240, "BSTAR": 0, "MEAN_MOTION_DOT": -7.4e-07, "MEAN_MOTION_DDOT": 0}, "tle": {"line1": "1 38251U 12018B   25343.03752333 -.00000074  00000+0  00000+0 0  9994", "line2": "2 38251  55.8247 310.5113 0015620 276.8164  82.9941  1.86229239 92404"}}, "geometry": {"type": "Point", "coordinates": [106.00266593610397, 31.362750053994798]}}, {"type": "Feature", "properties": {"norad_id": 38775, "name": "BEIDOU-2 M6 (C14)", "group": "beidou", "lat": -20.580059681066356, "lon": 54.707898789724716, "alt_km": 21500.467748800944, "timestamp": "2025-12-10T07:43:55.044537+00:00", "meta": {"OBJECT_NAME": "BEIDOU-2 M6 (C14)", "OBJECT_ID": "2012-050B", "EPOCH": "2025-12-09T06:50:59.454240", "MEAN_MOTION": 1.86230769, "ECCENTRICITY": 0.00110803, "INCLINATION": 56.3755, "RA_OF_ASC_NODE": 69.1821, "ARG_OF_PERICENTER": 345.0946, "MEAN_ANOMALY": 14.8952, "EPHEMERIS_TYPE": 0, "CLASSIFICATION_TYPE": "U", "NORAD_CAT_ID": 38775, "ELEMENT_SET_NO": 999, "REV_AT_EPOCH": 8977, "BSTAR": 0, "MEAN_MOTION_DOT": -4.8e-07, "MEAN_MOTION_DDOT": 0}, "tle": {"line1": "1 38775U 12050B   25343.28541035 -.00000048  00000+0  00000+0 0  9994", "line2": "2 38775  56.3755  69.1821 0011080 345.0946  14.8952  1.86230769 89773"}}, "geometry": {"type": "Point", "coordinates": [54.707898789724716, -20.580059681066356]}}]}